QZS-1R                  
1 49336U 21096A   24186.60974258 -.00000323  00000+0  00000+0 0  9992
2 49336  35.9791  90.2637 0757193 271.8528 273.5580  1.00252910  9866
